{"type": "FeatureCollection", "features": [ {"type": "Feature", "properties": {"norad_id": 30110, "name": "FENGYUN 1C DEB", "group": "fengyun-1c-debris", "lat": 14.168154498451258, "lon": 87.88551417692437, "alt_km": 852.2797709331217, "timestamp": "2025-12-06T18:50:10.442376+00:00", "meta": {"OBJECT_NAME": "FENGYUN 1C DEB", "OBJECT_ID": "1999-025RP", "EPOCH": "2025-12-05T05:35:19.334688", "MEAN_MOTION": 13.56219878, "ECCENTRICITY": 0.02679099, "INCLINATION": 98.9078, "RA_OF_ASC_NODE": 88.7495, "ARG_OF_PERICENTER": 12.4434, "MEAN_ANOMALY": 348.3153, "EPHEMERIS_TYPE": 0, "CLASSIFICATION_TYPE": "U", "NORAD_CAT_ID": 30110, "ELEMENT_SET_NO": 999, "REV_AT_EPOCH": 93413, "BSTAR": 0.00037124116, "MEAN_MOTION_DOT": 2.9e-06, "MEAN_MOTION_DDOT": 0}, "tle": {"line1": "1 30110U 99025RP  25339.23286267  .00000290  00000+0  37124-3 0  9998", "line2": "2 30110  98.9078  88.7495 0267909  12.4434 348.3153 13.56219878934137"}}, "geometry": {"type": "Point", "coordinates": [87.88551417692437, 14.168154498451258]}}, {"type": "Feature", "properties": {"norad_id": 30112, "name": "FENGYUN 1C DEB", "group": "fengyun-1c-debris", "lat": -52.47219994587125, "lon": 122.1265759869307, "alt_km": 869.1304212771756, "timestamp": "2025-12-06T18:50:10.442386+00:00", "meta": {"OBJECT_NAME": "FENGYUN 1C DEB", "OBJECT_ID": "1999-025RR", "EPOCH": "2025-12-06T04:15:12.550176", "MEAN_MOTION": 14.22195686, "ECCENTRICITY": 0.02015805, "INCLINATION": 99.281, "RA_OF_ASC_NODE": 313.7787, "ARG_OF_PERICENTER": 126.2551, "MEAN_ANOMALY": 235.7439, "EPHEMERIS_TYPE": 0, "CLASSIFICATION_TYPE": "U", "NORAD_CAT_ID": 30112, "ELEMENT_SET_NO": 999, "REV_AT_EPOCH": 97489, "BSTAR": 0.00073068376, "MEAN_MOTION_DOT": 1.944e-05, "MEAN_MOTION_DDOT": 0}, "tle": {"line1": "1 30112U 99025RR  25340.17722859  .00001944  00000+0  73068-3 0  9991", "line2": "2 30112  99.2810 313.7787 0201580 126.2551 235.7439 14.22195686974896"}}, "geometry": {"type": "Point", "coordinates": [122.1265759869307, -52.47219994587125]}}, {"type": "Feature", "properties": {"norad_id": 30113, "name": "FENGYUN 1C DEB", "group": "fengyun-1c-debris", "lat": -22.9518509577778, "lon": -163.55107708492505, "alt_km": 725.2028013996896, "timestamp": "2025-12-06T18:50:10.442397+00:00", "meta": {"OBJECT_NAME": "FENGYUN 1C DEB", "OBJECT_ID": "1999-025RS", "EPOCH": "2025-12-06T01:22:37.338240", "MEAN_MOTION": 14.45194597, "ECCENTRICITY": 0.00406832, "INCLINATION": 99.0371, "RA_OF_ASC_NODE": 191.8107, "ARG_OF_PERICENTER": 21.196, "MEAN_ANOMALY": 133.3238, "EPHEMERIS_TYPE": 0, "CLASSIFICATION_TYPE": "U", "NORAD_CAT_ID": 30113, "ELEMENT_SET_NO": 999, "REV_AT_EPOCH": 97812, "BSTAR": 0.0030309869, "MEAN_MOTION_DOT": 0.00010693, "MEAN_MOTION_DDOT": 0}, "tle": {"line1": "1 30113U 99025RS  25340.05737660  .00010693  00000+0  30310-2 0  9998", "line2": "2 30113  99.0371 191.8107 0040683  21.1960 133.3238 14.45194597978125"}}, "geometry": {"type": "Point", "coordinates": [-163.55107708492505, -22.9518509577778]}}, {"type": "Feature", "properties": {"norad_id": 30114, "name": "FENGYUN 1C DEB", "group": "fengyun-1c-debris", "lat": 11.649595773214775, "lon": 165.13435319181568, "alt_km": 811.1854494930185, "timestamp": "2025-12-06T18:50:10.442407+00:00", "meta": {"OBJECT_NAME": "FENGYUN 1C DEB", "OBJECT_ID": "1999-025RT", "EPOCH": "2025-12-06T06:13:33.536352", "MEAN_MOTION": 14.09645697, "ECCENTRICITY": 0.00819785, "INCLINATION": 98.7468, "RA_OF_ASC_NODE": 342.8049, "ARG_OF_PERICENTER": 137.9404, "MEAN_ANOMALY": 244.7557, "EPHEMERIS_TYPE": 0, "CLASSIFICATION_TYPE": "U", "NORAD_CAT_ID": 30114, "ELEMENT_SET_NO": 999, "REV_AT_EPOCH": 97063, "BSTAR": 0.00027580464, "MEAN_MOTION_DOT": 4.56e-06, "MEAN_MOTION_DDOT": 0}, "tle": {"line1": "1 30114U 99025RT  25340.25941593  .00000456  00000+0  27580-3 0  9995", "line2": "2 30114  98.7468 342.8049 0081978 137.9404 244.7557 14.09645697970634"}}, "geometry": {"type": "Point", "coordinates": [165.13435319181568, 11.649595773214775]}}, {"type": "Feature", "properties": {"norad_id": 30115, "name": "FENGYUN 1C DEB", "group": "fengyun-1c-debris", "lat": 20.664894991498574, "lon": 4.944456154001176, "alt_km": 799.0573800707116, "timestamp": "2025-12-06T18:50:10.442417+00:00", "meta": {"OBJECT_NAME": "FENGYUN 1C DEB", "OBJECT_ID": "1999-025RU", "EPOCH": "2025-12-06T00:27:01.194048", "MEAN_MOTION": 14.19737404, "ECCENTRICITY": 0.00681119, "INCLINATION": 98.6227, "RA_OF_ASC_NODE": 7.4792, "ARG_OF_PERICENTER": 80.0914, "MEAN_ANOMALY": 348.3098, "EPHEMERIS_TYPE": 0, "CLASSIFICATION_TYPE": "U", "NORAD_CAT_ID": 30115, "ELEMENT_SET_NO": 999, "REV_AT_EPOCH": 97233, "BSTAR": 0.0016710021, "MEAN_MOTION_DOT": 3.578e-05, "MEAN_MOTION_DDOT": 0}, "tle": {"line1": "1 30115U 99025RU  25340.01876382  .00003578  00000+0  16710-2 0  9993", "line2": "2 30115  98.6227   7.4792 0068111  80.0914 348.3098 14.19737404972333"}}, "geometry": {"type": "Point", "coordinates": [4.944456154001176, 20.664894991498574]}}, {"type": "Feature", "properties": {"norad_id": 30116, "name": "FENGYUN 1C DEB", "group": "fengyun-1c-debris", "lat": 73.99727504069554, "lon": -93.36827997238275, "alt_km": 790.4053435449259, "timestamp": "2025-12-06T18:50:10.442427+00:00", "meta": {"OBJECT_NAME": "FENGYUN 1C DEB", "OBJECT_ID": "1999-025RV", "EPOCH": "2025-12-06T00:27:08.154432", "MEAN_MOTION": 14.29211581, "ECCENTRICITY": 0.00205176, "INCLINATION": 99.3985, "RA_OF_ASC_NODE": 50.5308, "ARG_OF_PERICENTER": 2.546, "MEAN_ANOMALY": 121.1998, "EPHEMERIS_TYPE": 0, "CLASSIFICATION_TYPE": "U", "NORAD_CAT_ID": 30116, "ELEMENT_SET_NO": 999, "REV_AT_EPOCH": 97413, "BSTAR": 0.0024336659, "MEAN_MOTION_DOT": 6.151e-05, "MEAN_MOTION_DDOT": 0}, "tle": {"line1": "1 30116U 99025RV  25340.01884438  .00006151  00000+0  24337-2 0  9999", "line2": "2 30116  99.3985  50.5308 0020517   2.5460 121.1998 14.29211581974138"}}, "geometry": {"type": "Point", "coordinates": [-93.36827997238275, 73.99727504069554]}}, {"type": "Feature", "properties": {"norad_id": 30117, "name": "FENGYUN 1C DEB", "group": "fengyun-1c-debris", "lat": 44.88368342891508, "lon": 158.26580863472563, "alt_km": 866.6915030810751, "timestamp": "2025-12-06T18:50:10.442437+00:00", "meta": {"OBJECT_NAME": "FENGYUN 1C DEB", "OBJECT_ID": "1999-025RW", "EPOCH": "2025-12-06T06:19:11.673120", "MEAN_MOTION": 14.07155617, "ECCENTRICITY": 0.01634278, "INCLINATION": 98.8035, "RA_OF_ASC_NODE": 328.8792, "ARG_OF_PERICENTER": 227.4681, "MEAN_ANOMALY": 148.3635, "EPHEMERIS_TYPE": 0, "CLASSIFICATION_TYPE": "U", "NORAD_CAT_ID": 30117, "ELEMENT_SET_NO": 999, "REV_AT_EPOCH": 96898, "BSTAR": 0.0004387134, "MEAN_MOTION_DOT": 7.86e-06, "MEAN_MOTION_DDOT": 0}, "tle": {"line1": "1 30117U 99025RW  25340.26332955  .00000786  00000+0  43871-3 0  9992", "line2": "2 30117  98.8035 328.8792 0163427 227.4681 148.3635 14.07155617968986"}}, "geometry": {"type": "Point", "coordinates": [158.26580863472563, 44.88368342891508]}}, {"type": "Feature", "properties": {"norad_id": 30118, "name": "FENGYUN 1C DEB", "group": "fengyun-1c-debris", "lat": -80.91062825957604, "lon": 60.30570681359176, "alt_km": 942.9675677590712, "timestamp": "2025-12-06T18:50:10.442447+00:00", "meta": {"OBJECT_NAME": "FENGYUN 1C DEB", "OBJECT_ID": "1999-025RX", "EPOCH": "2025-12-06T07:22:17.023008", "MEAN_MOTION": 14.05117935, "ECCENTRICITY": 0.00853632, "INCLINATION": 98.8032, "RA_OF_ASC_NODE": 344.2348, "ARG_OF_PERICENTER": 77.6579, "MEAN_ANOMALY": 299.7888, "EPHEMERIS_TYPE": 0, "CLASSIFICATION_TYPE": "U", "NORAD_CAT_ID": 30118, "ELEMENT_SET_NO": 999, "REV_AT_EPOCH": 96841, "BSTAR": 0.00037003998, "MEAN_MOTION_DOT": 5.75e-06, "MEAN_MOTION_DDOT": 0}, "tle": {"line1": "1 30118U 99025RX  25340.30714147  .00000575  00000+0  37004-3 0  9992", "line2": "2 30118  98.8032 344.2348 0085363  77.6579 299.7888 14.05117935968414"}}, "geometry": {"type": "Point", "coordinates": [60.30570681359176, -80.91062825957604]}}, {"type": "Feature", "properties": {"norad_id": 30119, "name": "FENGYUN 1C DEB", "group": "fengyun-1c-debris", "lat": -23.244094283007186, "lon": 151.933089236734, "alt_km": 850.4199949897238, "timestamp": "2025-12-06T18:50:10.442457+00:00", "meta": {"OBJECT_NAME": "FENGYUN 1C DEB", "OBJECT_ID": "1999-025RY", "EPOCH": "2025-12-05T23:25:01.586784", "MEAN_MOTION": 14.22154369, "ECCENTRICITY": 0.01315657, "INCLINATION": 97.9195, "RA_OF_ASC_NODE": 334.6334, "ARG_OF_PERICENTER": 313.0258, "MEAN_ANOMALY": 71.6128, "EPHEMERIS_TYPE": 0, "CLASSIFICATION_TYPE": "U", "NORAD_CAT_ID": 30119, "ELEMENT_SET_NO": 999, "REV_AT_EPOCH": 97084, "BSTAR": 0.0029294716, "MEAN_MOTION_DOT": 7.058e-05, "MEAN_MOTION_DDOT": 0}, "tle": {"line1": "1 30119U 99025RY  25339.97571281  .00007058  00000+0  29295-2 0  9999", "line2": "2 30119  97.9195 334.6334 0131565 313.0258  71.6128 14.22154369970845"}}, "geometry": {"type": "Point", "coordinates": [151.933089236734, -23.244094283007186]}}, {"type": "Feature", "properties": {"norad_id": 30120, "name": "FENGYUN 1C DEB", "group": "fengyun-1c-debris", "lat": 49.44061563630095, "lon": 52.11365946546426, "alt_km": 840.940022940571, "timestamp": "2025-12-06T18:50:10.442477+00:00", "meta": {"OBJECT_NAME": "FENGYUN 1C DEB", "OBJECT_ID": "1999-025RZ", "EPOCH": "2025-12-05T17:58:37.339392", "MEAN_MOTION": 14.27501327, "ECCENTRICITY": 0.00633336, "INCLINATION": 98.853, "RA_OF_ASC_NODE": 61.557, "ARG_OF_PERICENTER": 231.583, "MEAN_ANOMALY": 258.7556, "EPHEMERIS_TYPE": 0, "CLASSIFICATION_TYPE": "U", "NORAD_CAT_ID": 30120, "ELEMENT_SET_NO": 999, "REV_AT_EPOCH": 97271, "BSTAR": 0.0037384848, "MEAN_MOTION_DOT": 9.348e-05, "MEAN_MOTION_DDOT": 0}, "tle": {"line1": "1 30120U 99025RZ  25339.74904328  .00009348  00000+0  37385-2 0  9991", "line2": "2 30120  98.8530  61.5570 0063333 231.5830 258.7556 14.27501327972711"}}, "geometry": {"type": "Point", "coordinates": [52.11365946546426, 49.44061563630095]}}]}